STARLINK-36940          
1 68027U 26040N   26152.44488878  .00014712  00000+0  45676-3 0  9997
2 68027  97.2844 101.4378 0002359  94.5977 265.5535 15.33469332 14301
STARLINK-36253          
1 68028U 26040P   26153.28903122  .00029057  00000+0  89847-3 0  9991
2 68028  97.2814 101.2023 0003369  97.6214 262.5412 15.33456673 14365
STARLINK-36944          
1 68029U 26040Q   26152.73583199  .00043155  00000+0  13305-2 0  9999
2 68029  97.2849 101.6535 0001538  90.8100 269.3319 15.33466251 14343
STARLINK-36942          
1 68030U 26040R   26152.27631794  .00028335  00000+0  87624-3 0  9994
2 68030  97.2855 101.2053 0001361  19.4138 340.7157 15.33462632 14270
STARLINK-36913          
1 68031U 26040S   26152.27360010  .00023204  00000+0  71864-3 0  9994
2 68031  97.2848 101.2035 0000993  64.4770 295.6576 15.33454832 14271
STARLINK-36935          
1 68032U 26040T   26151.86031756  .00031483  00000+0  97307-3 0  9999
2 68032  97.2841 100.8538 0001468  56.1689 303.9693 15.33458032 14216
STARLINK-36947          
1 68033U 26040U   26152.98868674  .00037647  00000+0  11610-2 0  9991
2 68033  97.2850 101.9223 0003421 111.1550 249.0059 15.33486425 14381
STARLINK-36939          
1 68034U 26040V   26152.32526391  .00031169  00000+0  96342-3 0  9996
2 68034  97.2857 101.2896 0001577  90.8810 269.2613 15.33457973 14285
STARLINK-36943          
1 68035U 26040W   26152.31982581  .00017643  00000+0  54750-3 0  9991
2 68035  97.2853 101.3022 0001437  87.8118 272.3289 15.33447467 15413
STARLINK-36906          
1 68036U 26040X   26152.32798480  .00032855  00000+0  10154-2 0  9997
2 68036  97.2847 101.2819 0002449  94.2243 265.9280 15.33450329 14289
STARLINK-36388          
1 68037U 26040Y   26151.86575480  .00035559  00000+0  10983-2 0  9993
2 68037  97.2852 100.8431 0001567  83.4737 276.6684 15.33452207 14216
STARLINK-36895          
1 68038U 26040Z   26152.33069879  .00024967  00000+0  77285-3 0  9997
2 68038  97.2858 101.2846 0001099  73.4543 286.6820 15.33456501 14283
STARLINK-36373          
1 68039U 26040AA  26152.33341968  .00031626  00000+0  97737-3 0  9994
2 68039  97.2862 101.2722 0000802  23.0048 337.1231 15.33460613 14281
STARLINK-36711          
1 68040U 26041A   26152.86372298  .00039782  00000+0  11823-2 0  9997
2 68040  53.1587  16.9276 0001357  95.1211 264.9946 15.34400812 14301
STARLINK-36825          
1 68041U 26041B   26152.84688341  .00025679  00000+0  76830-3 0  9995
2 68041  53.1573  16.7983 0001031 127.8320 232.2776 15.34410217 14302
STARLINK-36925          
1 68042U 26041C   26152.91508968  .00028107  00000+0  95697-3 0  9991
2 68042  53.1583  18.6605 0001153 146.0295 214.0780 15.30218500 14282
STARLINK-36902          
1 68043U 26041D   26152.06665571  .00026735  00000+0  82072-3 0  9990
2 68043  53.1586  22.5979 0000970 116.1811 243.9291 15.33571958 14158
STARLINK-36966          
1 68044U 26041E   26152.06946412  .00015637  00000+0  47304-3 0  9995
2 68044  53.1581  20.5016 0001074  91.6255 268.4870 15.34394882 14187
STARLINK-36864          
1 68045U 26041F   26152.93727037  .00044539  00000+0  13205-2 0  9997
2 68045  53.1595  16.6690 0002096 166.0366 194.0695 15.34423842 14315
STARLINK-36321          
1 68046U 26041G   26151.92502266  .00023181  00000+0  69495-3 0  9994
2 68046  53.1590  23.1436 0001389  74.8338 285.2818 15.34406306 14137
STARLINK-36181          
1 68047U 26041H   26153.00005787  .00046057  00000+0  13675-2 0  9997
2 68047  53.1603  17.9495 0001142  74.9316 188.1628 15.34364254  5880
STARLINK-36318          
1 68048U 26041J   26152.24390911  .00032379  00000+0  96515-3 0  9996
2 68048  53.1588  20.1532 0000996 126.1605 233.9490 15.34404990 14202
STARLINK-36885          
1 68049U 26041K   26153.24660120 -.00386352  00000+0 -11165-1 0  9991
2 68049  53.1585  15.0497 0000846  90.5786 269.5315 15.36696866 14366
STARLINK-36945          
1 68050U 26041L   26152.88476097  .00034571  00000+0  10294-2 0  9994
2 68050  53.1602  17.0384 0001111 113.0087 247.1033 15.34405393 14300
STARLINK-35911          
1 68051U 26041M   26153.25003472 -.00016196  00000+0 -48199-3 0  9991
2 68051  53.1588  17.1159 0001458  74.7546 319.1747 15.33559149  5650
STARLINK-35808          
1 68052U 26041N   26152.04897865  .00025962  00000+0  77639-3 0  9995
2 68052  53.1594  22.4959 0001001 104.5507 255.5606 15.34418577 14150
STARLINK-36919          
1 68053U 26041P   26152.91403883  .00030001  00000+0  10207-2 0  9992
2 68053  53.1586  18.6384 0001132  83.8632 276.2497 15.30207539 14286
STARLINK-36924          
1 68054U 26041Q   26152.81752250  .00030391  00000+0  90663-3 0  9994
2 68054  53.1599  17.3545 0001281  94.3431 265.7718 15.34411042 14295
STARLINK-35998          
1 68055U 26041R   26151.93133072  .00019004  00000+0  57189-3 0  9996
2 68055  53.1589  23.1792 0000806  96.8337 263.2758 15.34414948 14136
STARLINK-36845          
1 68056U 26041S   26152.03377797  .00028202  00000+0  84240-3 0  9991
2 68056  53.1608  20.9741 0000398 216.9532 143.1443 15.34410823 14175
