OBJECT_NAME,OBJECT_ID,EPOCH,MEAN_MOTION,ECCENTRICITY,INCLINATION,RA_OF_ASC_NODE,ARG_OF_PERICENTER,MEAN_ANOMALY,EPHEMERIS_TYPE,CLASSIFICATION_TYPE,NORAD_CAT_ID,ELEMENT_SET_NO,REV_AT_EPOCH,BSTAR,MEAN_MOTION_DOT,MEAN_MOTION_DDOT
STARLINK-36940,2026-040N,2026-06-01T10:40:38.390592,15.33469332,.00023598,97.2844,101.4378,94.5977,265.5535,0,U,68027,999,1430,.45675674E-3,.14712E-3,0
STARLINK-36253,2026-040P,2026-06-02T06:56:12.297408,15.33456673,.00033691,97.2814,101.2023,97.6214,262.5412,0,U,68028,999,1436,.89846613E-3,.29057E-3,0
STARLINK-36944,2026-040Q,2026-06-01T17:39:35.883936,15.33466251,.0001538,97.2849,101.6535,90.8100,269.3319,0,U,68029,999,1434,.13305408E-2,.43155E-3,0
STARLINK-36942,2026-040R,2026-06-01T06:37:53.870016,15.33462632,.00013616,97.2855,101.2053,19.4138,340.7157,0,U,68030,999,1427,.87624374E-3,.28335E-3,0
STARLINK-36913,2026-040S,2026-06-01T06:33:59.048640,15.33454832,.00009934,97.2848,101.2035,64.4770,295.6576,0,U,68031,999,1427,.71863786E-3,.23204E-3,0
STARLINK-36935,2026-040T,2026-05-31T20:38:51.437184,15.33458032,.0001468,97.2841,100.8538,56.1689,303.9693,0,U,68032,999,1421,.97306593E-3,.31483E-3,0
STARLINK-36947,2026-040U,2026-06-01T23:43:42.534336,15.33486425,.00034212,97.2850,101.9223,111.1550,249.0059,0,U,68033,999,1438,.11609793E-2,.37647E-3,0
STARLINK-36939,2026-040V,2026-06-01T07:48:22.801824,15.33457973,.00015775,97.2857,101.2896,90.8810,269.2613,0,U,68034,999,1428,.96341649E-3,.31169E-3,0
STARLINK-36943,2026-040W,2026-06-01T07:40:32.949984,15.33447467,.00014372,97.2853,101.3022,87.8118,272.3289,0,U,68035,999,1541,.54749695E-3,.17643E-3,0
STARLINK-36906,2026-040X,2026-06-01T07:52:17.886720,15.33450329,.00024498,97.2847,101.2819,94.2243,265.9280,0,U,68036,999,1428,.10153749E-2,.32855E-3,0
STARLINK-36388,2026-040Y,2026-05-31T20:46:41.214720,15.33452207,.00015671,97.2852,100.8431,83.4737,276.6684,0,U,68037,999,1421,.10983245E-2,.35559E-3,0
STARLINK-36895,2026-040Z,2026-06-01T07:56:12.375456,15.33456501,.00010995,97.2858,101.2846,73.4543,286.6820,0,U,68038,999,1428,.77285258E-3,.24967E-3,0
STARLINK-36373,2026-040AA,2026-06-01T08:00:07.460352,15.33460613,.0000802,97.2862,101.2722,23.0048,337.1231,0,U,68039,999,1428,.97737074E-3,.31626E-3,0
STARLINK-36711,2026-041A,2026-06-01T20:43:45.665472,15.34400812,.00013574,53.1587,16.9276,95.1211,264.9946,0,U,68040,999,1430,.11822704E-2,.39782E-3,0
STARLINK-36825,2026-041B,2026-06-01T20:19:30.726624,15.34410217,.0001031,53.1573,16.7983,127.8320,232.2776,0,U,68041,999,1430,.76829685E-3,.25679E-3,0
STARLINK-36925,2026-041C,2026-06-01T21:57:43.748352,15.30218500,.0001153,53.1583,18.6605,146.0295,214.0780,0,U,68042,999,1428,.95696532E-3,.28107E-3,0
STARLINK-36902,2026-041D,2026-06-01T01:35:59.053344,15.33571958,.00009708,53.1586,22.5979,116.1811,243.9291,0,U,68043,999,1415,.82071546E-3,.26735E-3,0
STARLINK-36966,2026-041E,2026-06-01T01:40:01.699968,15.34394882,.00010745,53.1581,20.5016,91.6255,268.4870,0,U,68044,999,1418,.47303621E-3,.15637E-3,0
STARLINK-36864,2026-041F,2026-06-01T22:29:40.159968,15.34423842,.00020962,53.1595,16.6690,166.0366,194.0695,0,U,68045,999,1431,.13204872E-2,.44539E-3,0
STARLINK-36321,2026-041G,2026-05-31T22:12:01.957824,15.34406306,.00013896,53.1590,23.1436,74.8338,285.2818,0,U,68046,999,1413,.69494648E-3,.23181E-3,0
STARLINK-36181,2026-041H,2026-06-02T00:00:04.999968,15.34364254,.00011421,53.1603,17.9495,74.9316,188.1628,0,U,68047,999,588,.13674606E-2,.46057E-3,0
STARLINK-36318,2026-041J,2026-06-01T05:51:13.747104,15.34404990,.00009965,53.1588,20.1532,126.1605,233.9490,0,U,68048,999,1420,.96515403E-3,.32379E-3,0
STARLINK-36885,2026-041K,2026-06-02T05:55:06.343680,15.36696866,.00008463,53.1585,15.0497,90.5786,269.5315,0,U,68049,999,1436,-.11164967E-1,-.386352E-2,0
STARLINK-36945,2026-041L,2026-06-01T21:14:03.347808,15.34405393,.00011116,53.1602,17.0384,113.0087,247.1033,0,U,68050,999,1430,.10294369E-2,.34571E-3,0
STARLINK-35911,2026-041M,2026-06-02T06:00:02.999808,15.33559149,.00014583,53.1588,17.1159,74.7546,319.1747,0,U,68051,999,565,-.48199436E-3,-.16196E-3,0
STARLINK-35808,2026-041N,2026-06-01T01:10:31.755360,15.34418577,.00010019,53.1594,22.4959,104.5507,255.5606,0,U,68052,999,1415,.77638745E-3,.25962E-3,0
STARLINK-36919,2026-041P,2026-06-01T21:56:12.954912,15.30207539,.00011324,53.1586,18.6384,83.8632,276.2497,0,U,68053,999,1428,.10207437E-2,.30001E-3,0
STARLINK-36924,2026-041Q,2026-06-01T19:37:13.944000,15.34411042,.00012811,53.1599,17.3545,94.3431,265.7718,0,U,68054,999,1429,.90662814E-3,.30391E-3,0
STARLINK-35998,2026-041R,2026-05-31T22:21:06.974208,15.34414948,.00008061,53.1589,23.1792,96.8337,263.2758,0,U,68055,999,1413,.57189251E-3,.19004E-3,0
STARLINK-36845,2026-041S,2026-06-01T00:48:38.416608,15.34410823,.00003986,53.1608,20.9741,216.9532,143.1443,0,U,68056,999,1417,.84239554E-3,.28202E-3,0
